STARLINK-36446          
1 67412U 26005J   26031.83335647 -.02064079  00000+0 -35015-1 0  9998
2 67412  43.0006  89.8130 0001323 288.5348 204.3360 15.53915359  4267
STARLINK-36442          
1 67413U 26005K   26031.83335647 -.02072056  00000+0 -35161-1 0  9995
2 67413  43.0009  89.8078 0001366 291.0604 203.7251 15.53919540  4261
STARLINK-36506          
1 67414U 26005L   26031.83335647 -.02072853  00000+0 -35176-1 0  9997
2 67414  43.0009  89.8026 0001313 291.6793 205.0241 15.53920311  4264
STARLINK-36468          
1 67415U 26005M   26031.83335647 -.02060369  00000+0 -34949-1 0  9994
2 67415  43.0009  89.7981 0001281 295.8888 202.7335 15.53912660  4210
STARLINK-36487          
1 67416U 26005N   26031.83335647 -.02006135  00000+0 -33948-1 0  9994
2 67416  43.0012  89.7940 0001567 291.9605 208.5852 15.53887644  4267
STARLINK-36374          
1 67417U 26005P   26031.83335647 -.02000154  00000+0 -33838-1 0  9998
2 67417  43.0014  89.7900 0001502 296.7538 205.7056 15.53885887  4265
STARLINK-36455          
1 67418U 26005Q   26031.83335647 -.02062773  00000+0 -34992-1 0  9996
2 67418  43.0005  89.7835 0001228 289.6566 214.7162 15.53914987  4262
STARLINK-36424          
1 67419U 26005R   26031.83335647 -.02071356  00000+0 -35148-1 0  9998
2 67419  43.0006  89.7784 0001362 294.4575 211.8303 15.53919915  4261
STARLINK-35564          
1 67420U 26005S   26031.83335647 -.02065658  00000+0 -35044-1 0  9993
2 67420  43.0006  89.7741 0001269 288.7533 219.4526 15.53916702  4152
STARLINK-36431          
1 67421U 26005T   26031.83335647 -.02062839  00000+0 -34997-1 0  9998
2 67421  43.0008  89.7693 0001121 292.2274 217.8986 15.53912889  4053
STARLINK-36418          
1 67422U 26005U   26031.83335647 -.02076030  00000+0 -35235-1 0  9993
2 67422  43.0004  89.7641 0001316 294.2240 217.8155 15.53921650  4216
STARLINK-36465          
1 67423U 26005V   26031.83335647 -.02067108  00000+0 -35072-1 0  9999
2 67423  43.0006  89.7597 0001182 293.2439 220.7123 15.53917252  4007
