CCSDS_OMM_VERS = 2.0
CREATION_DATE  = 
ORIGINATOR     = 

OBJECT_NAME    = STARLINK-36446
OBJECT_ID      = 2026-005J
CENTER_NAME    = EARTH
REF_FRAME      = TEME
TIME_SYSTEM    = UTC
MEAN_ELEMENT_THEORY = SGP/SGP4

EPOCH          = 2026-01-31T20:00:01.999008
MEAN_MOTION    = 15.53915359
ECCENTRICITY   = .0001323
INCLINATION    = 43.0006
RA_OF_ASC_NODE = 89.8130
ARG_OF_PERICENTER = 288.5348
MEAN_ANOMALY   = 204.3360

EPHEMERIS_TYPE = 0
CLASSIFICATION_TYPE = U
NORAD_CAT_ID   = 67412
ELEMENT_SET_NO = 999
REV_AT_EPOCH   = 426
BSTAR          = -.35015E-1
MEAN_MOTION_DOT = -.2064079E-1
MEAN_MOTION_DDOT = 0

CCSDS_OMM_VERS = 2.0
CREATION_DATE  = 
ORIGINATOR     = 

OBJECT_NAME    = STARLINK-36442
OBJECT_ID      = 2026-005K
CENTER_NAME    = EARTH
REF_FRAME      = TEME
TIME_SYSTEM    = UTC
MEAN_ELEMENT_THEORY = SGP/SGP4

EPOCH          = 2026-01-31T20:00:01.999008
MEAN_MOTION    = 15.53919540
ECCENTRICITY   = .0001366
INCLINATION    = 43.0009
RA_OF_ASC_NODE = 89.8078
ARG_OF_PERICENTER = 291.0604
MEAN_ANOMALY   = 203.7251

EPHEMERIS_TYPE = 0
CLASSIFICATION_TYPE = U
NORAD_CAT_ID   = 67413
ELEMENT_SET_NO = 999
REV_AT_EPOCH   = 426
BSTAR          = -.35161E-1
MEAN_MOTION_DOT = -.2072056E-1
MEAN_MOTION_DDOT = 0

CCSDS_OMM_VERS = 2.0
CREATION_DATE  = 
ORIGINATOR     = 

OBJECT_NAME    = STARLINK-36506
OBJECT_ID      = 2026-005L
CENTER_NAME    = EARTH
REF_FRAME      = TEME
TIME_SYSTEM    = UTC
MEAN_ELEMENT_THEORY = SGP/SGP4

EPOCH          = 2026-01-31T20:00:01.999008
MEAN_MOTION    = 15.53920311
ECCENTRICITY   = .0001313
INCLINATION    = 43.0009
RA_OF_ASC_NODE = 89.8026
ARG_OF_PERICENTER = 291.6793
MEAN_ANOMALY   = 205.0241

EPHEMERIS_TYPE = 0
CLASSIFICATION_TYPE = U
NORAD_CAT_ID   = 67414
ELEMENT_SET_NO = 999
REV_AT_EPOCH   = 426
BSTAR          = -.35176E-1
MEAN_MOTION_DOT = -.2072853E-1
MEAN_MOTION_DDOT = 0

CCSDS_OMM_VERS = 2.0
CREATION_DATE  = 
ORIGINATOR     = 

OBJECT_NAME    = STARLINK-36468
OBJECT_ID      = 2026-005M
CENTER_NAME    = EARTH
REF_FRAME      = TEME
TIME_SYSTEM    = UTC
MEAN_ELEMENT_THEORY = SGP/SGP4

EPOCH          = 2026-01-31T20:00:01.999008
MEAN_MOTION    = 15.53912660
ECCENTRICITY   = .0001281
INCLINATION    = 43.0009
RA_OF_ASC_NODE = 89.7981
ARG_OF_PERICENTER = 295.8888
MEAN_ANOMALY   = 202.7335

EPHEMERIS_TYPE = 0
CLASSIFICATION_TYPE = U
NORAD_CAT_ID   = 67415
ELEMENT_SET_NO = 999
REV_AT_EPOCH   = 421
BSTAR          = -.34949E-1
MEAN_MOTION_DOT = -.2060369E-1
MEAN_MOTION_DDOT = 0

CCSDS_OMM_VERS = 2.0
CREATION_DATE  = 
ORIGINATOR     = 

OBJECT_NAME    = STARLINK-36487
OBJECT_ID      = 2026-005N
CENTER_NAME    = EARTH
REF_FRAME      = TEME
TIME_SYSTEM    = UTC
MEAN_ELEMENT_THEORY = SGP/SGP4

EPOCH          = 2026-01-31T20:00:01.999008
MEAN_MOTION    = 15.53887644
ECCENTRICITY   = .0001567
INCLINATION    = 43.0012
RA_OF_ASC_NODE = 89.7940
ARG_OF_PERICENTER = 291.9605
MEAN_ANOMALY   = 208.5852

EPHEMERIS_TYPE = 0
CLASSIFICATION_TYPE = U
NORAD_CAT_ID   = 67416
ELEMENT_SET_NO = 999
REV_AT_EPOCH   = 426
BSTAR          = -.33948E-1
MEAN_MOTION_DOT = -.2006135E-1
MEAN_MOTION_DDOT = 0

CCSDS_OMM_VERS = 2.0
CREATION_DATE  = 
ORIGINATOR     = 

OBJECT_NAME    = STARLINK-36374
OBJECT_ID      = 2026-005P
CENTER_NAME    = EARTH
REF_FRAME      = TEME
TIME_SYSTEM    = UTC
MEAN_ELEMENT_THEORY = SGP/SGP4

EPOCH          = 2026-01-31T20:00:01.999008
MEAN_MOTION    = 15.53885887
ECCENTRICITY   = .0001502
INCLINATION    = 43.0014
RA_OF_ASC_NODE = 89.7900
ARG_OF_PERICENTER = 296.7538
MEAN_ANOMALY   = 205.7056

EPHEMERIS_TYPE = 0
CLASSIFICATION_TYPE = U
NORAD_CAT_ID   = 67417
ELEMENT_SET_NO = 999
REV_AT_EPOCH   = 426
BSTAR          = -.33838E-1
MEAN_MOTION_DOT = -.2000154E-1
MEAN_MOTION_DDOT = 0

CCSDS_OMM_VERS = 2.0
CREATION_DATE  = 
ORIGINATOR     = 

OBJECT_NAME    = STARLINK-36455
OBJECT_ID      = 2026-005Q
CENTER_NAME    = EARTH
REF_FRAME      = TEME
TIME_SYSTEM    = UTC
MEAN_ELEMENT_THEORY = SGP/SGP4

EPOCH          = 2026-01-31T20:00:01.999008
MEAN_MOTION    = 15.53914987
ECCENTRICITY   = .0001228
INCLINATION    = 43.0005
RA_OF_ASC_NODE = 89.7835
ARG_OF_PERICENTER = 289.6566
MEAN_ANOMALY   = 214.7162

EPHEMERIS_TYPE = 0
CLASSIFICATION_TYPE = U
NORAD_CAT_ID   = 67418
ELEMENT_SET_NO = 999
REV_AT_EPOCH   = 426
BSTAR          = -.34992E-1
MEAN_MOTION_DOT = -.2062773E-1
MEAN_MOTION_DDOT = 0

CCSDS_OMM_VERS = 2.0
CREATION_DATE  = 
ORIGINATOR     = 

OBJECT_NAME    = STARLINK-36424
OBJECT_ID      = 2026-005R
CENTER_NAME    = EARTH
REF_FRAME      = TEME
TIME_SYSTEM    = UTC
MEAN_ELEMENT_THEORY = SGP/SGP4

EPOCH          = 2026-01-31T20:00:01.999008
MEAN_MOTION    = 15.53919915
ECCENTRICITY   = .0001362
INCLINATION    = 43.0006
RA_OF_ASC_NODE = 89.7784
ARG_OF_PERICENTER = 294.4575
MEAN_ANOMALY   = 211.8303

EPHEMERIS_TYPE = 0
CLASSIFICATION_TYPE = U
NORAD_CAT_ID   = 67419
ELEMENT_SET_NO = 999
REV_AT_EPOCH   = 426
BSTAR          = -.35148E-1
MEAN_MOTION_DOT = -.2071356E-1
MEAN_MOTION_DDOT = 0

CCSDS_OMM_VERS = 2.0
CREATION_DATE  = 
ORIGINATOR     = 

OBJECT_NAME    = STARLINK-35564
OBJECT_ID      = 2026-005S
CENTER_NAME    = EARTH
REF_FRAME      = TEME
TIME_SYSTEM    = UTC
MEAN_ELEMENT_THEORY = SGP/SGP4

EPOCH          = 2026-01-31T20:00:01.999008
MEAN_MOTION    = 15.53916702
ECCENTRICITY   = .0001269
INCLINATION    = 43.0006
RA_OF_ASC_NODE = 89.7741
ARG_OF_PERICENTER = 288.7533
MEAN_ANOMALY   = 219.4526

EPHEMERIS_TYPE = 0
CLASSIFICATION_TYPE = U
NORAD_CAT_ID   = 67420
ELEMENT_SET_NO = 999
REV_AT_EPOCH   = 415
BSTAR          = -.35044E-1
MEAN_MOTION_DOT = -.2065658E-1
MEAN_MOTION_DDOT = 0

CCSDS_OMM_VERS = 2.0
CREATION_DATE  = 
ORIGINATOR     = 

OBJECT_NAME    = STARLINK-36431
OBJECT_ID      = 2026-005T
CENTER_NAME    = EARTH
REF_FRAME      = TEME
TIME_SYSTEM    = UTC
MEAN_ELEMENT_THEORY = SGP/SGP4

EPOCH          = 2026-01-31T20:00:01.999008
MEAN_MOTION    = 15.53912889
ECCENTRICITY   = .0001121
INCLINATION    = 43.0008
RA_OF_ASC_NODE = 89.7693
ARG_OF_PERICENTER = 292.2274
MEAN_ANOMALY   = 217.8986

EPHEMERIS_TYPE = 0
CLASSIFICATION_TYPE = U
NORAD_CAT_ID   = 67421
ELEMENT_SET_NO = 999
REV_AT_EPOCH   = 405
BSTAR          = -.34997E-1
MEAN_MOTION_DOT = -.2062839E-1
MEAN_MOTION_DDOT = 0

CCSDS_OMM_VERS = 2.0
CREATION_DATE  = 
ORIGINATOR     = 

OBJECT_NAME    = STARLINK-36418
OBJECT_ID      = 2026-005U
CENTER_NAME    = EARTH
REF_FRAME      = TEME
TIME_SYSTEM    = UTC
MEAN_ELEMENT_THEORY = SGP/SGP4

EPOCH          = 2026-01-31T20:00:01.999008
MEAN_MOTION    = 15.53921650
ECCENTRICITY   = .0001316
INCLINATION    = 43.0004
RA_OF_ASC_NODE = 89.7641
ARG_OF_PERICENTER = 294.2240
MEAN_ANOMALY   = 217.8155

EPHEMERIS_TYPE = 0
CLASSIFICATION_TYPE = U
NORAD_CAT_ID   = 67422
ELEMENT_SET_NO = 999
REV_AT_EPOCH   = 421
BSTAR          = -.35235E-1
MEAN_MOTION_DOT = -.207603E-1
MEAN_MOTION_DDOT = 0

CCSDS_OMM_VERS = 2.0
CREATION_DATE  = 
ORIGINATOR     = 

OBJECT_NAME    = STARLINK-36465
OBJECT_ID      = 2026-005V
CENTER_NAME    = EARTH
REF_FRAME      = TEME
TIME_SYSTEM    = UTC
MEAN_ELEMENT_THEORY = SGP/SGP4

EPOCH          = 2026-01-31T20:00:01.999008
MEAN_MOTION    = 15.53917252
ECCENTRICITY   = .0001182
INCLINATION    = 43.0006
RA_OF_ASC_NODE = 89.7597
ARG_OF_PERICENTER = 293.2439
MEAN_ANOMALY   = 220.7123

EPHEMERIS_TYPE = 0
CLASSIFICATION_TYPE = U
NORAD_CAT_ID   = 67423
ELEMENT_SET_NO = 999
REV_AT_EPOCH   = 400
BSTAR          = -.35072E-1
MEAN_MOTION_DOT = -.2067108E-1
MEAN_MOTION_DDOT = 0

